OBJECT_NAME,OBJECT_ID,EPOCH,MEAN_MOTION,ECCENTRICITY,INCLINATION,RA_OF_ASC_NODE,ARG_OF_PERICENTER,MEAN_ANOMALY,EPHEMERIS_TYPE,CLASSIFICATION_TYPE,NORAD_CAT_ID,ELEMENT_SET_NO,REV_AT_EPOCH,BSTAR,MEAN_MOTION_DOT,MEAN_MOTION_DDOT
PACE-1,2021-059AG,2026-06-29T11:56:01.288032,15.82078447,.0002453,97.6738,20.0465,218.1483,141.9611,0,U,48909,999,27974,.41889E-3,.85735E-3,0
YAM-3,2021-059AN,2026-06-29T11:21:03.820032,15.48819216,.000388,97.6980,8.2333,322.3011,37.7966,0,U,48915,999,27889,.19585E-3,.10433E-3,0
FARADAY_PHOENIX,2021-059AX,2026-06-29T12:02:23.595072,15.82005602,.0004511,97.6782,19.9318,246.8877,113.1915,0,U,48924,999,27960,.67709E-3,.139119E-2,0
DEMO8 (TENZING),2021-059CA,2026-06-29T12:44:04.869888,15.55453084,.0005361,97.7013,14.8933,302.7693,57.3043,0,U,48951,999,27922,.27559E-3,.18703E-3,0
NAPA-2,2021-059CN,2026-06-29T08:12:00.133344,16.14595969,.0005999,97.6526,21.4053,244.2178,115.8489,0,U,48963,999,27976,.82854E-3,.1036663E-1,.71381E-3
FENGYUN 3E,2021-062A,2026-06-29T12:48:06.209280,14.19905599,.000277,98.7489,183.8035,65.4278,294.7187,0,U,49008,999,25833,.2323E-4,.5E-7,0
ISS (NAUKA),2021-066A,2026-06-29T12:12:43.624800,15.49477794,.0004278,51.6320,239.0980,246.9974,113.0563,0,U,49044,999,60830,.10902E-3,.566E-4,0
STARLINK-3100,2021-082Q,2026-06-29T12:35:07.526688,14.98329042,.0002956,70.0000,12.4716,267.6767,92.4053,0,U,49144,999,26273,.22263E-4,.173E-5,0
CUTE,2021-088D,2026-06-28T17:31:30.296928,15.97827663,.00057636,97.4136,280.1790,209.4048,150.6905,0,U,49263,999,26439,.51766474E-3,.232087E-2,.23734074E-4
2021-091B,2021-091B,2026-06-29T12:19:49.887840,15.18613548,.0013458,97.4469,7.9008,5.2688,354.8686,0,U,49316,999,26085,.14895E-3,.302E-4,0
SDGSAT 1,2021-100A,2026-06-29T13:08:57.280416,15.19166480,.000819,97.2626,227.0258,220.5363,139.5263,0,U,49387,999,25779,.10387E-3,.212E-4,0
TEIKYOSAT-4 (OORURI),2021-102B,2026-06-29T12:23:44.850912,15.09549215,.0010436,97.3666,209.5206,247.5758,112.4367,0,U,49396,999,25458,.10706E-3,.1659E-4,0
Z-SAT,2021-102E,2026-06-29T12:32:02.283360,15.18351141,.001597,97.3320,215.4708,198.2083,161.8582,0,U,49399,999,25531,.1658E-3,.3349E-4,0
HIBARI,2021-102F,2026-06-29T11:35:07.274976,15.31976436,.0012655,97.3232,226.2467,150.3673,209.8288,0,U,49400,999,25607,.33639E-3,.10336E-3,0
KOSEN-1,2021-102H,2026-06-28T16:12:57.438720,15.26990664,.0014412,97.3182,221.6099,160.4878,199.6916,0,U,49402,999,25577,.26782336E-3,.7044E-4,0
GLOBAL-14,2021-106A,2026-06-29T12:21:35.065152,15.51160951,.0015018,42.0014,217.7862,111.8122,248.4322,0,U,49469,999,26004,.34078E-3,.20249E-3,0
GAOFEN-3 02,2021-109A,2026-06-29T12:53:10.769280,14.42219365,.0002088,98.4084,188.4582,342.8109,17.3009,0,U,49495,999,24209,.89159E-4,.25E-5,0
GLOBAL-12,2021-115BA,2026-06-28T23:19:44.136768,15.54313739,.00026435,53.1959,347.8469,75.7989,284.3316,0,U,49772,999,25773,.45793777E-3,.30116E-3,0
GLOBAL-13,2021-115BB,2026-06-29T12:42:54.140256,15.46517287,.0002614,53.1976,355.8950,137.1452,222.9761,0,U,49773,999,25767,.3619E-3,.1787E-3,0
GLOBAL-17,2021-120A,2026-06-29T12:06:00.339840,15.52911706,.0015162,41.9954,335.8678,335.7569,24.2561,0,U,49949,999,25681,.41938E-3,.26664E-3,0
GLOBAL-16,2021-120B,2026-06-28T21:22:06.220128,15.50735057,.00135152,41.9958,343.4807,322.3279,37.6618,0,U,49950,999,25666,.42696426E-3,.25059E-3,0
XW-3 (CAS-9),2021-131B,2026-06-29T11:32:03.993792,14.41367883,.0005296,98.4990,272.8037,68.7205,291.4549,0,U,50466,999,23688,.1234E-3,.355E-5,0
ION SCV-004,2022-002K,2026-06-29T04:46:56.672256,15.30564895,.0005956,97.2832,237.6324,320.7191,39.3618,0,U,50993,999,24713,.16092E-3,.4681E-4,0
ETV-A1,2022-002CE,2026-06-29T11:35:28.435200,15.40929098,.0003471,97.2878,246.7540,307.7069,52.3863,0,U,51060,999,24773,.25038E-3,.10219E-3,0
BRO-5,2022-002CF,2026-06-29T11:17:57.748992,15.48031643,.0003896,97.2997,254.2528,265.9006,94.1799,0,U,51061,999,24815,.50698E-3,.2649E-3,0
LUDI TANCE 1-01A (L-SAR 01A),2022-007A,2026-06-29T13:13:16.305024,14.88421814,.0001617,97.8098,187.7951,90.0717,270.0686,0,U,51284,999,24031,.73203E-4,.624E-5,0
LUDI TANCE 1-01B (L-SAR 01B),2022-018A,2026-06-29T12:24:52.064064,14.88413188,.0001591,97.8103,187.7592,91.2008,268.9391,0,U,51822,999,23554,.74385E-4,.635E-5,0
2022-023F,2022-023F,2026-06-28T14:34:19.486272,15.17939556,.01315508,63.4444,234.6565,342.0257,17.6224,0,U,51951,999,23944,.46971523E-3,.11794E-3,0
