PACE-1                  
1 48909U 21059AG  26180.49723713  .00085735  00000+0  41889-3 0  9990
2 48909  97.6738  20.0465 0002453 218.1483 141.9611 15.82078447279748
YAM-3                   
1 48915U 21059AN  26180.47296088  .00010433  00000+0  19585-3 0  9996
2 48915  97.6980   8.2333 0003880 322.3011  37.7966 15.48819216278895
FARADAY_PHOENIX         
1 48924U 21059AX  26180.50166198  .00139119  00000+0  67709-3 0  9992
2 48924  97.6782  19.9318 0004511 246.8877 113.1915 15.82005602279606
DEMO8 (TENZING)         
1 48951U 21059CA  26180.53061192  .00018703  00000+0  27559-3 0  9997
2 48951  97.7013  14.8933 0005361 302.7693  57.3043 15.55453084279223
NAPA-2                  
1 48963U 21059CN  26180.34166821  .01036663  71381-3  82854-3 0  9993
2 48963  97.6526  21.4053 0005999 244.2178 115.8489 16.14595969279764
FENGYUN 3E              
1 49008U 21062A   26180.53340520  .00000005  00000+0  23230-4 0  9999
2 49008  98.7489 183.8035 0002770  65.4278 294.7187 14.19905599258335
ISS (NAUKA)             
1 49044U 21066A   26180.50883825  .00005660  00000+0  10902-3 0  9993
2 49044  51.6320 239.0980 0004278 246.9974 113.0563 15.49477794608306
STARLINK-3100           
1 49144U 21082Q   26180.52439267  .00000173  00000+0  22263-4 0  9999
2 49144  70.0000  12.4716 0002956 267.6767  92.4053 14.98329042262730
CUTE                    
1 49263U 21088D   26179.73021177  .00232087  23734-4  51766-3 0  9999
2 49263  97.4136 280.1790 0005763 209.4048 150.6905 15.97827663264395
2021-091B               
1 49316U 21091B   26180.51377185  .00003020  00000+0  14895-3 0  9994
2 49316  97.4469   7.9008 0013458   5.2688 354.8686 15.18613548260851
SDGSAT 1                
1 49387U 21100A   26180.54788519  .00002120  00000+0  10387-3 0  9995
2 49387  97.2626 227.0258 0008190 220.5363 139.5263 15.19166480257790
TEIKYOSAT-4 (OORURI)    
1 49396U 21102B   26180.51649133  .00001659  00000+0  10706-3 0  9993
2 49396  97.3666 209.5206 0010436 247.5758 112.4367 15.09549215254585
Z-SAT                   
1 49399U 21102E   26180.52224865  .00003349  00000+0  16580-3 0  9992
2 49399  97.3320 215.4708 0015970 198.2083 161.8582 15.18351141255317
HIBARI                  
1 49400U 21102F   26180.48272309  .00010336  00000+0  33639-3 0  9994
2 49400  97.3232 226.2467 0012655 150.3673 209.8288 15.31976436256070
KOSEN-1                 
1 49402U 21102H   26179.67566480  .00007044  00000+0  26782-3 0  9994
2 49402  97.3182 221.6099 0014412 160.4878 199.6916 15.26990664255771
GLOBAL-14               
1 49469U 21106A   26180.51498918  .00020249  00000+0  34078-3 0  9995
2 49469  42.0014 217.7862 0015018 111.8122 248.4322 15.51160951260040
GAOFEN-3 02             
1 49495U 21109A   26180.53693020  .00000250  00000+0  89159-4 0  9991
2 49495  98.4084 188.4582 0002088 342.8109  17.3009 14.42219365242091
GLOBAL-12               
1 49772U 21115BA  26179.97203862  .00030116  00000+0  45794-3 0  9993
2 49772  53.1959 347.8469 0002643  75.7989 284.3316 15.54313739257736
GLOBAL-13               
1 49773U 21115BB  26180.52979329  .00017870  00000+0  36190-3 0  9997
2 49773  53.1976 355.8950 0002614 137.1452 222.9761 15.46517287257676
GLOBAL-17               
1 49949U 21120A   26180.50417060  .00026664  00000+0  41938-3 0  9992
2 49949  41.9954 335.8678 0015162 335.7569  24.2561 15.52911706256811
GLOBAL-16               
1 49950U 21120B   26179.89034977  .00025059  00000+0  42696-3 0  9995
2 49950  41.9958 343.4807 0013515 322.3279  37.6618 15.50735057256661
XW-3 (CAS-9)            
1 50466U 21131B   26180.48060178  .00000355  00000+0  12340-3 0  9995
2 50466  98.4990 272.8037 0005296  68.7205 291.4549 14.41367883236887
ION SCV-004             
1 50993U 22002K   26180.19926704  .00004681  00000+0  16092-3 0  9996
2 50993  97.2832 237.6324 0005956 320.7191  39.3618 15.30564895247137
ETV-A1                  
1 51060U 22002CE  26180.48296800  .00010219  00000+0  25038-3 0  9995
2 51060  97.2878 246.7540 0003471 307.7069  52.3863 15.40929098247737
BRO-5                   
1 51061U 22002CF  26180.47080728  .00026490  00000+0  50698-3 0  9993
2 51061  97.2997 254.2528 0003896 265.9006  94.1799 15.48031643248154
LUDI TANCE 1-01A (L-SA*)
1 51284U 22007A   26180.55088316  .00000624  00000+0  73203-4 0  9994
2 51284  97.8098 187.7951 0001617  90.0717 270.0686 14.88421814240310
LUDI TANCE 1-01B (L-SA*)
1 51822U 22018A   26180.51726926  .00000635  00000+0  74385-4 0  9990
2 51822  97.8103 187.7592 0001591  91.2008 268.9391 14.88413188235546
2022-023F               
1 51951U 22023F   26179.60716998  .00011794  00000+0  46972-3 0  9993
2 51951  63.4444 234.6565 0131550 342.0257  17.6224 15.17939556239442
